ONEWEB-0435             
1 51632U 22012L   24287.57203181  .00000276  00000+0  75425-3 0  9994
2 51632  87.8944 158.0313 0002018  86.6943 273.4415 13.10371578129214
ONEWEB-0436             
1 51633U 22012M   24287.85010806 -.00000783  00000+0 -20506-2 0  9990
2 51633  87.9084 127.6356 0001995  84.6727 275.4632 13.17656035134468
ONEWEB-0438             
1 51634U 22012N   24287.17364227  .00000689  00000+0  19384-2 0  9990
2 51634  87.8946 158.1109 0001466  77.6003 282.5288 13.10375707129199
ONEWEB-0439             
1 51635U 22012P   24287.63511438  .00000774  00000+0  21808-2 0  9999
2 51635  87.8947 158.0053 0001687  79.2800 280.8517 13.10373896130517
ONEWEB-0442             
1 51636U 22012Q   24287.84252400 -.00000033  00000+0 -11854-3 0  9995
2 51636  87.9085 127.6759 0001065  67.1813 292.9431 13.17648839134452
ONEWEB-0443             
1 51637U 22012R   24287.86192304  .00000131  00000+0  30499-3 0  9997
2 51637  87.9087 127.6821 0001459  96.1500 263.9797 13.17644763134508
ONEWEB-0444             
1 51638U 22012S   24287.70150381  .00000291  00000+0  79864-3 0  9996
2 51638  87.8944 158.0083 0001782  81.7613 278.3716 13.10375628130547
ONEWEB-0445             
1 51639U 22012T   24287.18860459  .00000280  00000+0  76575-3 0  9997
2 51639  87.8935 158.0759 0001588  71.6250 288.5050 13.10371028129190
